start=new Date('2023-06-07T00:00:00.000Z').valueOf();
sats=[{"BSTAR":"0.00015468000000","SITE":"AFETR","ECCENTRICITY":"0.00011000","DECAY_DATE":null,"EPOCH":"2023-06-06T06:52:28.973280","CENTER_NAME":"EARTH","LAUNCH_DATE":"2022-09-24","CLASSIFICATION_TYPE":"U","PERIOD":"95.438","MEAN_MOTION_DDOT":"0.0000000000000","TLE_LINE1":"1 53923U 22119AP  23157.28644645  .00002175  00000-0  15468-3 0  9996","TIME_SYSTEM":"UTC","RCS_SIZE":"LARGE","MEAN_ANOMALY":"297.5075","RA_OF_ASC_NODE":"156.3564","ARG_OF_PERICENTER":"62.6029","APOAPSIS":"540.505","OBJECT_ID":"2022-119AP","NORAD_CAT_ID":"53923","TLE_LINE2":"2 53923  53.2146 156.3564 0001100  62.6029 297.5075 15.08840587 39746","MEAN_MOTION_DOT":"0.00002175","COUNTRY_CODE":"US","OBJECT_TYPE":"PAYLOAD","MEAN_MOTION":"15.08840587","ELEMENT_SET_NO":"999","FILE":"3926325","PERIAPSIS":"538.983","OBJECT_NAME":"STARLINK-5004","SEMIMAJOR_AXIS":"6917.879","GP_ID":"233327575","REF_FRAME":"TEME","MEAN_ELEMENT_THEORY":"SGP4","INCLINATION":"53.2146","REV_AT_EPOCH":"3974","EPHEMERIS_TYPE":"0"},{"EPHEMERIS_TYPE":"0","REV_AT_EPOCH":"3982","INCLINATION":"53.2154","REF_FRAME":"TEME","MEAN_ELEMENT_THEORY":"SGP4","OBJECT_NAME":"STARLINK-5001","SEMIMAJOR_AXIS":"6917.887","PERIAPSIS":"538.914","ELEMENT_SET_NO":"999","FILE":"3926325","GP_ID":"233325827","COUNTRY_CODE":"US","MEAN_MOTION_DOT":"0.00000131","MEAN_MOTION":"15.08837829","OBJECT_TYPE":"PAYLOAD","OBJECT_ID":"2022-119AQ","APOAPSIS":"540.590","ARG_OF_PERICENTER":"86.4003","TLE_LINE2":"2 53924  53.2154 151.1076 0001211  86.4003 273.7128 15.08837829 39825","NORAD_CAT_ID":"53924","MEAN_ANOMALY":"273.7128","RCS_SIZE":"LARGE","RA_OF_ASC_NODE":"151.1076","CLASSIFICATION_TYPE":"U","LAUNCH_DATE":"2022-09-24","TIME_SYSTEM":"UTC","TLE_LINE1":"1 53924U 22119AQ  23157.35866546  .00000131  00000-0  26294-4 0  9991","MEAN_MOTION_DDOT":"0.0000000000000","PERIOD":"95.438","ECCENTRICITY":"0.00012110","SITE":"AFETR","BSTAR":"0.00002629400000","CENTER_NAME":"EARTH","EPOCH":"2023-06-06T08:36:28.695744","DECAY_DATE":null},{"INCLINATION":"53.2156","REV_AT_EPOCH":"3976","EPHEMERIS_TYPE":"0","REF_FRAME":"TEME","MEAN_ELEMENT_THEORY":"SGP4","FILE":"3926325","ELEMENT_SET_NO":"999","PERIAPSIS":"538.854","SEMIMAJOR_AXIS":"6917.878","OBJECT_NAME":"STARLINK-5011","GP_ID":"233326077","COUNTRY_CODE":"US","MEAN_MOTION_DOT":"0.00000437","OBJECT_TYPE":"PAYLOAD","MEAN_MOTION":"15.08840657","ARG_OF_PERICENTER":"82.0034","APOAPSIS":"540.632","OBJECT_ID":"2022-119AR","TLE_LINE2":"2 53925  53.2156 155.6352 0001285  82.0034 278.1104 15.08840657 39760","NORAD_CAT_ID":"53925","RCS_SIZE":"LARGE","MEAN_ANOMALY":"278.1104","RA_OF_ASC_NODE":"155.6352","LAUNCH_DATE":"2022-09-24","CLASSIFICATION_TYPE":"U","PERIOD":"95.438","TLE_LINE1":"1 53925U 22119AR  23157.39680665  .00000437  00000-0  45529-4 0  9993","MEAN_MOTION_DDOT":"0.0000000000000","TIME_SYSTEM":"UTC","ECCENTRICITY":"0.00012850","SITE":"AFETR","BSTAR":"0.00004552900000","EPOCH":"2023-06-06T09:31:24.094560","DECAY_DATE":null,"CENTER_NAME":"EARTH"},{"RCS_SIZE":"LARGE","MEAN_ANOMALY":"284.1607","RA_OF_ASC_NODE":"151.0387","APOAPSIS":"540.540","ARG_OF_PERICENTER":"75.9511","OBJECT_ID":"2022-119AS","TLE_LINE2":"2 53926  53.2153 151.0387 0001137  75.9511 284.1607 15.08837419 39838","NORAD_CAT_ID":"53926","SITE":"AFETR","ECCENTRICITY":"0.00011370","BSTAR":"0.00003674600000","EPOCH":"2023-06-06T08:20:33.420192","DECAY_DATE":null,"CENTER_NAME":"EARTH","LAUNCH_DATE":"2022-09-24","CLASSIFICATION_TYPE":"U","PERIOD":"95.438","TIME_SYSTEM":"UTC","MEAN_MOTION_DDOT":"0.0000000000000","TLE_LINE1":"1 53926U 22119AS  23157.34760903  .00000297  00000-0  36746-4 0  9998","REF_FRAME":"TEME","MEAN_ELEMENT_THEORY":"SGP4","INCLINATION":"53.2153","EPHEMERIS_TYPE":"0","REV_AT_EPOCH":"3983","MEAN_MOTION_DOT":"0.00000297","COUNTRY_CODE":"US","OBJECT_TYPE":"PAYLOAD","MEAN_MOTION":"15.08837419","PERIAPSIS":"538.967","ELEMENT_SET_NO":"999","FILE":"3926325","SEMIMAJOR_AXIS":"6917.888","OBJECT_NAME":"STARLINK-5014","GP_ID":"233326829"},{"EPHEMERIS_TYPE":"0","REV_AT_EPOCH":"3982","INCLINATION":"53.2162","MEAN_ELEMENT_THEORY":"SGP4","REF_FRAME":"TEME","GP_ID":"233327076","OBJECT_NAME":"STARLINK-5008","SEMIMAJOR_AXIS":"6917.998","PERIAPSIS":"539.092","FILE":"3926325","ELEMENT_SET_NO":"999","MEAN_MOTION":"15.08801562","OBJECT_TYPE":"PAYLOAD","MEAN_MOTION_DOT":"-0.00004168","COUNTRY_CODE":"US","TLE_LINE2":"2 53927  53.2162 151.1668 0001114  86.4340 273.6780 15.08801562 39828","NORAD_CAT_ID":"53927","OBJECT_ID":"2022-119AT","APOAPSIS":"540.634","ARG_OF_PERICENTER":"86.4340","RA_OF_ASC_NODE":"151.1668","MEAN_ANOMALY":"273.6780","RCS_SIZE":"LARGE","TIME_SYSTEM":"UTC","TLE_LINE1":"1 53927U 22119AT  23157.36607657 -.00004168  00000-0 -24422-3 0  9997","MEAN_MOTION_DDOT":"0.0000000000000","PERIOD":"95.440","CLASSIFICATION_TYPE":"U","LAUNCH_DATE":"2022-09-24","CENTER_NAME":"EARTH","DECAY_DATE":null,"EPOCH":"2023-06-06T08:47:09.015648","SITE":"AFETR","BSTAR":"-0.00024422000000","ECCENTRICITY":"0.00011140"},{"CENTER_NAME":"EARTH","EPOCH":"2023-06-06T11:45:15.482592","DECAY_DATE":null,"BSTAR":"0.00005962000000","SITE":"AFETR","ECCENTRICITY":"0.00010680","TIME_SYSTEM":"UTC","MEAN_MOTION_DDOT":"0.0000000000000","TLE_LINE1":"1 53928U 22119AU  23157.48976253  .00000661  00000-0  59620-4 0  9993","PERIOD":"95.438","CLASSIFICATION_TYPE":"U","LAUNCH_DATE":"2022-09-24","RA_OF_ASC_NODE":"145.5130","MEAN_ANOMALY":"271.9205","RCS_SIZE":"LARGE","TLE_LINE2":"2 53928  53.2152 145.5130 0001068  88.1909 271.9205 15.08840618 39915","NORAD_CAT_ID":"53928","OBJECT_ID":"2022-119AU","APOAPSIS":"540.482","ARG_OF_PERICENTER":"88.1909","MEAN_MOTION":"15.08840618","OBJECT_TYPE":"PAYLOAD","MEAN_MOTION_DOT":"0.00000661","COUNTRY_CODE":"US","GP_ID":"233326327","SEMIMAJOR_AXIS":"6917.878","OBJECT_NAME":"STARLINK-5009","PERIAPSIS":"539.005","ELEMENT_SET_NO":"999","FILE":"3926325","MEAN_ELEMENT_THEORY":"SGP4","REF_FRAME":"TEME","EPHEMERIS_TYPE":"0","REV_AT_EPOCH":"3991","INCLINATION":"53.2152"},{"MEAN_MOTION":"15.08838288","OBJECT_TYPE":"PAYLOAD","MEAN_MOTION_DOT":"-0.00000126","COUNTRY_CODE":"US","GP_ID":"233359410","SEMIMAJOR_AXIS":"6917.886","OBJECT_NAME":"STARLINK-5018","FILE":"3926571","ELEMENT_SET_NO":"999","PERIAPSIS":"539.006","MEAN_ELEMENT_THEORY":"SGP4","REF_FRAME":"TEME","REV_AT_EPOCH":"3984","EPHEMERIS_TYPE":"0","INCLINATION":"53.2153","CENTER_NAME":"EARTH","DECAY_DATE":null,"EPOCH":"2023-06-06T22:30:24.177312","SITE":"AFETR","ECCENTRICITY":"0.00010760","BSTAR":"0.00001015700000","TLE_LINE1":"1 53929U 22119AV  23157.93777983 -.00000126  00000-0  10157-4 0  9992","MEAN_MOTION_DDOT":"0.0000000000000","TIME_SYSTEM":"UTC","PERIOD":"95.438","CLASSIFICATION_TYPE":"U","LAUNCH_DATE":"2022-09-24","RA_OF_ASC_NODE":"153.3147","MEAN_ANOMALY":"274.7867","RCS_SIZE":"LARGE","NORAD_CAT_ID":"53929","TLE_LINE2":"2 53929  53.2153 153.3147 0001076  85.3248 274.7867 15.08838288 39843","OBJECT_ID":"2022-119AV","ARG_OF_PERICENTER":"85.3248","APOAPSIS":"540.495"},{"MEAN_ELEMENT_THEORY":"SGP4","REF_FRAME":"TEME","REV_AT_EPOCH":"3989","EPHEMERIS_TYPE":"0","INCLINATION":"53.2156","MEAN_MOTION":"15.08838972","OBJECT_TYPE":"PAYLOAD","COUNTRY_CODE":"US","MEAN_MOTION_DOT":"0.00001312","GP_ID":"233327329","OBJECT_NAME":"STARLINK-5010","SEMIMAJOR_AXIS":"6917.884","FILE":"3926325","ELEMENT_SET_NO":"999","PERIAPSIS":"539.343","RA_OF_ASC_NODE":"146.0201","MEAN_ANOMALY":"286.8963","RCS_SIZE":"LARGE","TLE_LINE2":"2 53930  53.2156 146.0201 0000586  73.2094 286.8963 15.08838972 39894","NORAD_CAT_ID":"53930","OBJECT_ID":"2022-119AW","ARG_OF_PERICENTER":"73.2094","APOAPSIS":"540.154","CENTER_NAME":"EARTH","DECAY_DATE":null,"EPOCH":"2023-06-06T08:13:15.725568","BSTAR":"0.00010051000000","SITE":"AFETR","ECCENTRICITY":"0.00005860","MEAN_MOTION_DDOT":"0.0000000000000","TLE_LINE1":"1 53930U 22119AW  23157.34254312  .00001312  00000-0  10051-3 0  9994","TIME_SYSTEM":"UTC","PERIOD":"95.438","CLASSIFICATION_TYPE":"U","LAUNCH_DATE":"2022-09-24"},{"MEAN_ELEMENT_THEORY":"SGP4","REF_FRAME":"TEME","EPHEMERIS_TYPE":"0","REV_AT_EPOCH":"4005","INCLINATION":"53.2153","MEAN_MOTION":"15.08837228","OBJECT_TYPE":"PAYLOAD","MEAN_MOTION_DOT":"0.00000213","COUNTRY_CODE":"US","GP_ID":"233358408","SEMIMAJOR_AXIS":"6917.889","OBJECT_NAME":"STARLINK-5015","PERIAPSIS":"539.066","FILE":"3926571","ELEMENT_SET_NO":"999","RA_OF_ASC_NODE":"138.3050","MEAN_ANOMALY":"290.1875","RCS_SIZE":"LARGE","NORAD_CAT_ID":"53931","TLE_LINE2":"2 53931  53.2153 138.3050 0000995  69.9224 290.1875 15.08837228 40052","OBJECT_ID":"2022-119AX","APOAPSIS":"540.442","ARG_OF_PERICENTER":"69.9224","CENTER_NAME":"EARTH","EPOCH":"2023-06-06T22:19:08.438592","DECAY_DATE":null,"SITE":"AFETR","ECCENTRICITY":"0.00009950","BSTAR":"0.00003143700000","TIME_SYSTEM":"UTC","TLE_LINE1":"1 53931U 22119AX  23157.92995878  .00000213  00000-0  31437-4 0  9999","MEAN_MOTION_DDOT":"0.0000000000000","PERIOD":"95.438","CLASSIFICATION_TYPE":"U","LAUNCH_DATE":"2022-09-24"},{"OBJECT_NAME":"STARLINK-4772","SEMIMAJOR_AXIS":"6917.886","PERIAPSIS":"538.968","ELEMENT_SET_NO":"999","FILE":"3926325","GP_ID":"233325828","COUNTRY_CODE":"US","MEAN_MOTION_DOT":"0.00000206","MEAN_MOTION":"15.08838149","OBJECT_TYPE":"PAYLOAD","EPHEMERIS_TYPE":"0","REV_AT_EPOCH":"3997","INCLINATION":"53.2155","REF_FRAME":"TEME","MEAN_ELEMENT_THEORY":"SGP4","CLASSIFICATION_TYPE":"U","LAUNCH_DATE":"2022-09-24","TIME_SYSTEM":"UTC","TLE_LINE1":"1 53932U 22119AY  23157.37432561  .00000206  00000-0  31041-4 0  9997","MEAN_MOTION_DDOT":"0.0000000000000","PERIOD":"95.438","BSTAR":"0.00003104100000","SITE":"AFETR","ECCENTRICITY":"0.00011320","CENTER_NAME":"EARTH","DECAY_DATE":null,"EPOCH":"2023-06-06T08:59:01.732704","OBJECT_ID":"2022-119AY","APOAPSIS":"540.534","ARG_OF_PERICENTER":"80.0507","TLE_LINE2":"2 53932  53.2155 141.2263 0001132  80.0507 280.0612 15.08838149 39975","NORAD_CAT_ID":"53932","MEAN_ANOMALY":"280.0612","RCS_SIZE":"LARGE","RA_OF_ASC_NODE":"141.2263"}];
